{
  "norad_id": 59857,
  "name": "STARLINK-31569",
  "history": [
    {
      "epoch": "2026-03-28T21:32:44.082816Z",
      "apogee_km": 484.363464648176,
      "perigee_km": 481.5929463282,
      "latitude_deg": -1.7609865616398159e-06,
      "longitude_deg": 16.449738326933975,
      "height_km": 482.86604171430054,
      "semi_major_axis_km": 6861.115205488188,
      "eccentricity": 0.0002019,
      "inclination_deg": 43.0015,
      "raan_deg": 165.945,
      "arg_perigee_deg": 265.4246,
      "mean_anomaly_deg": 94.6375,
      "mean_motion_rev_day": 15.27603675
    },
    {
      "epoch": "2026-03-28T21:32:44.083680Z",
      "apogee_km": 484.363464648176,
      "perigee_km": 481.5929463282,
      "latitude_deg": -1.7609865620440588e-06,
      "longitude_deg": 16.449734717078176,
      "height_km": 482.86604171430054,
      "semi_major_axis_km": 6861.115205488188,
      "eccentricity": 0.0002019,
      "inclination_deg": 43.0015,
      "raan_deg": 165.945,
      "arg_perigee_deg": 265.4246,
      "mean_anomaly_deg": 94.6375,
      "mean_motion_rev_day": 15.27603675
    },
    {
      "epoch": "2026-03-30T12:46:40.331136Z",
      "apogee_km": 483.4580191750101,
      "perigee_km": 482.7181046643327,
      "latitude_deg": 6.305377593653186e-05,
      "longitude_deg": 137.12692757933968,
      "height_km": 482.9820828507506,
      "semi_major_axis_km": 6861.225061919671,
      "eccentricity": 5.392e-05,
      "inclination_deg": 43.002,
      "raan_deg": 156.7177,
      "arg_perigee_deg": 251.415,
      "mean_anomaly_deg": 108.6644,
      "mean_motion_rev_day": 15.27566987
    },
    {
      "epoch": "2026-03-30T20:37:27.022656Z",
      "apogee_km": 483.59323411653804,
      "perigee_km": 482.57255904472277,
      "latitude_deg": 2.3540395357441763e-05,
      "longitude_deg": 17.26190160049583,
      "height_km": 482.90069994747546,
      "semi_major_axis_km": 6861.21989658063,
      "eccentricity": 7.438e-05,
      "inclination_deg": 43.0004,
      "raan_deg": 154.8695,
      "arg_perigee_deg": 265.3199,
      "mean_anomaly_deg": 94.7568,
      "mean_motion_rev_day": 15.27568712
    },
    {
      "epoch": "2026-03-31T10:44:50.713152Z",
      "apogee_km": 483.70663380364294,
      "perigee_km": 482.35923725170323,
      "latitude_deg": -1.2904824666230061e-05,
      "longitude_deg": 161.50743196687654,
      "height_km": 482.7812713178849,
      "semi_major_axis_km": 6861.169935527672,
      "eccentricity": 9.819e-05,
      "inclination_deg": 43.001,
      "raan_deg": 151.5438,
      "arg_perigee_deg": 272.3925,
      "mean_anomaly_deg": 87.6814,
      "mean_motion_rev_day": 15.27585397
    },
    {
      "epoch": "2026-04-01T19:42:08.049600Z",
      "apogee_km": 483.7781529699814,
      "perigee_km": 482.318092775834,
      "latitude_deg": 6.554592508058601e-05,
      "longitude_deg": 18.077876024891776,
      "height_km": 482.8792753750919,
      "semi_major_axis_km": 6861.185122872907,
      "eccentricity": 0.0001064,
      "inclination_deg": 43.0014,
      "raan_deg": 143.7898,
      "arg_perigee_deg": 265.7109,
      "mean_anomaly_deg": 94.3622,
      "mean_motion_rev_day": 15.27580325
    },
    {
      "epoch": "2026-04-02T11:23:41.743680Z",
      "apogee_km": 483.7304772035641,
      "perigee_km": 482.3350524967891,
      "latitude_deg": -2.792324056611028e-05,
      "longitude_deg": 138.35000890948533,
      "height_km": 482.75687595171803,
      "semi_major_axis_km": 6861.169764850177,
      "eccentricity": 0.00010169,
      "inclination_deg": 43.0012,
      "raan_deg": 140.0969,
      "arg_perigee_deg": 274.3075,
      "mean_anomaly_deg": 85.766,
      "mean_motion_rev_day": 15.27585454
    },
    {
      "epoch": "2026-04-03T09:21:52.475616Z",
      "apogee_km": 483.66664362231495,
      "perigee_km": 482.3782551009135,
      "latitude_deg": 3.815931055234234e-05,
      "longitude_deg": 162.73290194458,
      "height_km": 482.8549985751664,
      "semi_major_axis_km": 6861.159449361614,
      "eccentricity": 9.389e-05,
      "inclination_deg": 43.0009,
      "raan_deg": 134.9267,
      "arg_perigee_deg": 264.9987,
      "mean_anomaly_deg": 95.0758,
      "mean_motion_rev_day": 15.27588899
    }
  ]
}